[{"OBJECT_NAME":"STARLINK-31475","OBJECT_ID":"2024-056Q","EPOCH":"2026-03-15T01:33:21.476160","MEAN_MOTION":15.27585472,"ECCENTRICITY":0.00013033,"INCLINATION":43.0021,"RA_OF_ASC_NODE":197.1335,"ARG_OF_PERICENTER":269.9933,"MEAN_ANOMALY":90.0769,"EPHEMERIS_TYPE":0,"CLASSIFICATION_TYPE":"U","NORAD_CAT_ID":59310,"ELEMENT_SET_NO":999,"REV_AT_EPOCH":11213,"BSTAR":7.2239413e-5,"MEAN_MOTION_DOT":1.727e-5,"MEAN_MOTION_DDOT":0},{"OBJECT_NAME":"STARLINK-31445","OBJECT_ID":"2024-056S","EPOCH":"2026-03-15T01:25:44.703552","MEAN_MOTION":15.27568658,"ECCENTRICITY":7.729e-5,"INCLINATION":42.9982,"RA_OF_ASC_NODE":207.4657,"ARG_OF_PERICENTER":34.0956,"MEAN_ANOMALY":325.9945,"EPHEMERIS_TYPE":0,"CLASSIFICATION_TYPE":"U","NORAD_CAT_ID":59312,"ELEMENT_SET_NO":999,"REV_AT_EPOCH":11189,"BSTAR":1.190412e-6,"MEAN_MOTION_DOT":-2.29e-6,"MEAN_MOTION_DDOT":0},{"OBJECT_NAME":"STARLINK-31495","OBJECT_ID":"2024-056T","EPOCH":"2026-03-14T16:36:39.936960","MEAN_MOTION":15.27584619,"ECCENTRICITY":3.166e-5,"INCLINATION":42.9996,"RA_OF_ASC_NODE":195.1553,"ARG_OF_PERICENTER":293.0137,"MEAN_ANOMALY":67.0681,"EPHEMERIS_TYPE":0,"CLASSIFICATION_TYPE":"U","NORAD_CAT_ID":59313,"ELEMENT_SET_NO":999,"REV_AT_EPOCH":11200,"BSTAR":5.1142236e-5,"MEAN_MOTION_DOT":1.146e-5,"MEAN_MOTION_DDOT":0},{"OBJECT_NAME":"STARLINK-31477","OBJECT_ID":"2024-056U","EPOCH":"2026-03-14T14:38:27.466368","MEAN_MOTION":15.27579897,"ECCENTRICITY":0.00013629,"INCLINATION":42.9976,"RA_OF_ASC_NODE":195.4018,"ARG_OF_PERICENTER":256.8967,"MEAN_ANOMALY":103.1732,"EPHEMERIS_TYPE":0,"CLASSIFICATION_TYPE":"U","NORAD_CAT_ID":59314,"ELEMENT_SET_NO":999,"REV_AT_EPOCH":11199,"BSTAR":3.499047e-5,"MEAN_MOTION_DOT":7.01e-6,"MEAN_MOTION_DDOT":0},{"OBJECT_NAME":"STARLINK-31446","OBJECT_ID":"2024-056V","EPOCH":"2026-03-14T16:46:21.901440","MEAN_MOTION":15.27589876,"ECCENTRICITY":0.00012332,"INCLINATION":42.9987,"RA_OF_ASC_NODE":202.137,"ARG_OF_PERICENTER":266.3093,"MEAN_ANOMALY":93.7618,"EPHEMERIS_TYPE":0,"CLASSIFICATION_TYPE":"U","NORAD_CAT_ID":59315,"ELEMENT_SET_NO":999,"REV_AT_EPOCH":11192,"BSTAR":8.1604692e-5,"MEAN_MOTION_DOT":1.985e-5,"MEAN_MOTION_DDOT":0},{"OBJECT_NAME":"STARLINK-31479","OBJECT_ID":"2024-056W","EPOCH":"2026-03-14T16:49:34.131072","MEAN_MOTION":15.2759723,"ECCENTRICITY":0.00016606,"INCLINATION":43.0043,"RA_OF_ASC_NODE":206.4764,"ARG_OF_PERICENTER":281.7134,"MEAN_ANOMALY":78.3531,"EPHEMERIS_TYPE":0,"CLASSIFICATION_TYPE":"U","NORAD_CAT_ID":59316,"ELEMENT_SET_NO":999,"REV_AT_EPOCH":11187,"BSTAR":0.00012614419,"MEAN_MOTION_DOT":3.212e-5,"MEAN_MOTION_DDOT":0},{"OBJECT_NAME":"STARLINK-31349","OBJECT_ID":"2024-056X","EPOCH":"2026-03-15T00:59:22.890624","MEAN_MOTION":15.275631,"ECCENTRICITY":1.61e-5,"INCLINATION":42.9971,"RA_OF_ASC_NODE":200.4063,"ARG_OF_PERICENTER":297.2485,"MEAN_ANOMALY":62.835,"EPHEMERIS_TYPE":0,"CLASSIFICATION_TYPE":"U","NORAD_CAT_ID":59317,"ELEMENT_SET_NO":999,"REV_AT_EPOCH":11204,"BSTAR":-6.0507006e-5,"MEAN_MOTION_DOT":-1.925e-5,"MEAN_MOTION_DDOT":0},{"OBJECT_NAME":"STARLINK-31464","OBJECT_ID":"2024-056Y","EPOCH":"2026-03-15T00:48:16.353504","MEAN_MOTION":15.27586004,"ECCENTRICITY":6.41e-5,"INCLINATION":42.9977,"RA_OF_ASC_NODE":200.3464,"ARG_OF_PERICENTER":262.4269,"MEAN_ANOMALY":97.651,"EPHEMERIS_TYPE":0,"CLASSIFICATION_TYPE":"U","NORAD_CAT_ID":59318,"ELEMENT_SET_NO":999,"REV_AT_EPOCH":11197,"BSTAR":-9.0452972e-5,"MEAN_MOTION_DOT":-2.75e-5,"MEAN_MOTION_DDOT":0},{"OBJECT_NAME":"STARLINK-31402","OBJECT_ID":"2024-057A","EPOCH":"2026-03-14T11:37:44.808096","MEAN_MOTION":15.27586292,"ECCENTRICITY":0.00011576,"INCLINATION":43.0023,"RA_OF_ASC_NODE":112.3881,"ARG_OF_PERICENTER":269.553,"MEAN_ANOMALY":90.5189,"EPHEMERIS_TYPE":0,"CLASSIFICATION_TYPE":"U","NORAD_CAT_ID":59320,"ELEMENT_SET_NO":999,"REV_AT_EPOCH":11110,"BSTAR":0.00010878949,"MEAN_MOTION_DOT":2.733e-5,"MEAN_MOTION_DDOT":0},{"OBJECT_NAME":"STARLINK-31578","OBJECT_ID":"2024-057B","EPOCH":"2026-03-14T22:00:38.527776","MEAN_MOTION":15.2757924,"ECCENTRICITY":6.241e-5,"INCLINATION":43.0001,"RA_OF_ASC_NODE":157.1047,"ARG_OF_PERICENTER":313.8745,"MEAN_ANOMALY":46.2055,"EPHEMERIS_TYPE":0,"CLASSIFICATION_TYPE":"U","NORAD_CAT_ID":59321,"ELEMENT_SET_NO":999,"REV_AT_EPOCH":11064,"BSTAR":0.00012603086,"MEAN_MOTION_DOT":3.208e-5,"MEAN_MOTION_DDOT":0},{"OBJECT_NAME":"STARLINK-31530","OBJECT_ID":"2024-057C","EPOCH":"2026-03-15T06:00:00.999648","MEAN_MOTION":15.42179972,"ECCENTRICITY":0.00132134,"INCLINATION":42.9973,"RA_OF_ASC_NODE":153.0159,"ARG_OF_PERICENTER":42.9554,"MEAN_ANOMALY":191.4426,"EPHEMERIS_TYPE":0,"CLASSIFICATION_TYPE":"U","NORAD_CAT_ID":59322,"ELEMENT_SET_NO":999,"REV_AT_EPOCH":587,"BSTAR":0.0039470896,"MEAN_MOTION_DOT":0.00177452,"MEAN_MOTION_DDOT":0},{"OBJECT_NAME":"STARLINK-31565","OBJECT_ID":"2024-057D","EPOCH":"2026-03-14T22:34:37.134912","MEAN_MOTION":15.27589961,"ECCENTRICITY":0.00015896,"INCLINATION":43.0007,"RA_OF_ASC_NODE":165.0743,"ARG_OF_PERICENTER":37.9264,"MEAN_ANOMALY":322.17,"EPHEMERIS_TYPE":0,"CLASSIFICATION_TYPE":"U","NORAD_CAT_ID":59323,"ELEMENT_SET_NO":999,"REV_AT_EPOCH":11055,"BSTAR":-4.3267374e-5,"MEAN_MOTION_DOT":-1.453e-5,"MEAN_MOTION_DDOT":0},{"OBJECT_NAME":"STARLINK-31570","OBJECT_ID":"2024-057E","EPOCH":"2026-03-14T21:57:09.302400","MEAN_MOTION":15.27578733,"ECCENTRICITY":0.00011291,"INCLINATION":42.9994,"RA_OF_ASC_NODE":157.9518,"ARG_OF_PERICENTER":28.5622,"MEAN_ANOMALY":331.5291,"EPHEMERIS_TYPE":0,"CLASSIFICATION_TYPE":"U","NORAD_CAT_ID":59324,"ELEMENT_SET_NO":999,"REV_AT_EPOCH":11063,"BSTAR":7.4445975e-5,"MEAN_MOTION_DOT":1.787e-5,"MEAN_MOTION_DDOT":0},{"OBJECT_NAME":"STARLINK-31611","OBJECT_ID":"2024-057F","EPOCH":"2026-03-14T21:59:00.740256","MEAN_MOTION":15.27576451,"ECCENTRICITY":0.00011788,"INCLINATION":43.0008,"RA_OF_ASC_NODE":157.9653,"ARG_OF_PERICENTER":268.7774,"MEAN_ANOMALY":91.2943,"EPHEMERIS_TYPE":0,"CLASSIFICATION_TYPE":"U","NORAD_CAT_ID":59325,"ELEMENT_SET_NO":999,"REV_AT_EPOCH":11063,"BSTAR":1.1084048e-5,"MEAN_MOTION_DOT":4.3e-7,"MEAN_MOTION_DDOT":0},{"OBJECT_NAME":"STARLINK-31632","OBJECT_ID":"2024-057G","EPOCH":"2026-03-14T22:48:45.472320","MEAN_MOTION":15.27551279,"ECCENTRICITY":8.407e-5,"INCLINATION":42.999,"RA_OF_ASC_NODE":168.6064,"ARG_OF_PERICENTER":270.5825,"MEAN_ANOMALY":89.493,"EPHEMERIS_TYPE":0,"CLASSIFICATION_TYPE":"U","NORAD_CAT_ID":59326,"ELEMENT_SET_NO":999,"REV_AT_EPOCH":11051,"BSTAR":-5.1352842e-5,"MEAN_MOTION_DOT":-1.673e-5,"MEAN_MOTION_DDOT":0},{"OBJECT_NAME":"STARLINK-31599","OBJECT_ID":"2024-057H","EPOCH":"2026-03-14T22:24:43.133184","MEAN_MOTION":15.27563646,"ECCENTRICITY":0.00021108,"INCLINATION":42.9996,"RA_OF_ASC_NODE":157.2425,"ARG_OF_PERICENTER":273.8541,"MEAN_ANOMALY":86.207,"EPHEMERIS_TYPE":0,"CLASSIFICATION_TYPE":"U","NORAD_CAT_ID":59327,"ELEMENT_SET_NO":999,"REV_AT_EPOCH":11064,"BSTAR":-0.00010470353,"MEAN_MOTION_DOT":-3.141e-5,"MEAN_MOTION_DDOT":0},{"OBJECT_NAME":"STARLINK-31614","OBJECT_ID":"2024-057J","EPOCH":"2026-03-14T22:59:51.549792","MEAN_MOTION":15.27578585,"ECCENTRICITY":9.928e-5,"INCLINATION":43.0012,"RA_OF_ASC_NODE":157.4241,"ARG_OF_PERICENTER":263.1662,"MEAN_ANOMALY":96.9077,"EPHEMERIS_TYPE":0,"CLASSIFICATION_TYPE":"U","NORAD_CAT_ID":59328,"ELEMENT_SET_NO":999,"REV_AT_EPOCH":11064,"BSTAR":3.547029e-5,"MEAN_MOTION_DOT":7.14e-6,"MEAN_MOTION_DDOT":0},{"OBJECT_NAME":"STARLINK-31493","OBJECT_ID":"2024-057K","EPOCH":"2026-03-14T22:35:47.872320","MEAN_MOTION":15.27577682,"ECCENTRICITY":0.0001733,"INCLINATION":43.0044,"RA_OF_ASC_NODE":157.3021,"ARG_OF_PERICENTER":266.829,"MEAN_ANOMALY":93.2364,"EPHEMERIS_TYPE":0,"CLASSIFICATION_TYPE":"U","NORAD_CAT_ID":59329,"ELEMENT_SET_NO":999,"REV_AT_EPOCH":11064,"BSTAR":2.238261e-6,"MEAN_MOTION_DOT":-2.01e-6,"MEAN_MOTION_DDOT":0},{"OBJECT_NAME":"STARLINK-31634","OBJECT_ID":"2024-057L","EPOCH":"2026-03-14T15:22:01.641792","MEAN_MOTION":15.27576396,"ECCENTRICITY":0.00013823,"INCLINATION":43.0019,"RA_OF_ASC_NODE":159.3355,"ARG_OF_PERICENTER":274.5203,"MEAN_ANOMALY":85.5491,"EPHEMERIS_TYPE":0,"CLASSIFICATION_TYPE":"U","NORAD_CAT_ID":59330,"ELEMENT_SET_NO":999,"REV_AT_EPOCH":11059,"BSTAR":2.8946655e-5,"MEAN_MOTION_DOT":5.34e-6,"MEAN_MOTION_DDOT":0},{"OBJECT_NAME":"STARLINK-31633","OBJECT_ID":"2024-057M","EPOCH":"2026-03-14T15:18:19.248192","MEAN_MOTION":15.27579829,"ECCENTRICITY":0.00021154,"INCLINATION":42.9999,"RA_OF_ASC_NODE":159.3152,"ARG_OF_PERICENTER":310.3732,"MEAN_ANOMALY":49.6934,"EPHEMERIS_TYPE":0,"CLASSIFICATION_TYPE":"U","NORAD_CAT_ID":59331,"ELEMENT_SET_NO":999,"REV_AT_EPOCH":11059,"BSTAR":0.00010174484,"MEAN_MOTION_DOT":2.538e-5,"MEAN_MOTION_DDOT":0},{"OBJECT_NAME":"STARLINK-31594","OBJECT_ID":"2024-057N","EPOCH":"2026-03-14T15:03:28.356192","MEAN_MOTION":15.27593981,"ECCENTRICITY":0.00016064,"INCLINATION":43.0028,"RA_OF_ASC_NODE":170.4801,"ARG_OF_PERICENTER":288.7884,"MEAN_ANOMALY":71.2793,"EPHEMERIS_TYPE":0,"CLASSIFICATION_TYPE":"U","NORAD_CAT_ID":59332,"ELEMENT_SET_NO":999,"REV_AT_EPOCH":11046,"BSTAR":6.9434294e-5,"MEAN_MOTION_DOT":1.65e-5,"MEAN_MOTION_DDOT":0},{"OBJECT_NAME":"STARLINK-31572","OBJECT_ID":"2024-057P","EPOCH":"2026-03-14T22:57:57.964032","MEAN_MOTION":15.27581391,"ECCENTRICITY":0.0001007,"INCLINATION":42.9974,"RA_OF_ASC_NODE":168.6539,"ARG_OF_PERICENTER":311.2081,"MEAN_ANOMALY":48.8684,"EPHEMERIS_TYPE":0,"CLASSIFICATION_TYPE":"U","NORAD_CAT_ID":59333,"ELEMENT_SET_NO":999,"REV_AT_EPOCH":11051,"BSTAR":4.8759815e-5,"MEAN_MOTION_DOT":1.08e-5,"MEAN_MOTION_DDOT":0},{"OBJECT_NAME":"STARLINK-31573","OBJECT_ID":"2024-057Q","EPOCH":"2026-03-14T22:02:29.634720","MEAN_MOTION":15.27583209,"ECCENTRICITY":7.062e-5,"INCLINATION":43.0003,"RA_OF_ASC_NODE":157.1121,"ARG_OF_PERICENTER":314.0634,"MEAN_ANOMALY":46.016,"EPHEMERIS_TYPE":0,"CLASSIFICATION_TYPE":"U","NORAD_CAT_ID":59334,"ELEMENT_SET_NO":999,"REV_AT_EPOCH":11064,"BSTAR":-4.816288e-6,"MEAN_MOTION_DOT":-3.94e-6,"MEAN_MOTION_DDOT":0}]
